*******************************************************************************
Ephemeris / WWW_USER Mon Mar 10 06:53:06 2025 Pasadena, USA      / Horizons    
*******************************************************************************
Target body name: (2018 WV1)                      {source: JPL#17}
Center body name: Earth (399)                     {source: DE441}
Center-site name: Mauna Kea
*******************************************************************************
Start time      : A.D. 2018-Oct-04 04:17:00.0000 UT      
Stop  time      : A.D. 2018-Oct-04 16:04:00.0000 UT      
Step-size       : 1 minutes
*******************************************************************************
Target pole/equ : undefined
Target radii    : undefined                                                    
Center geodetic : 204.5278, 19.8260847, 4.21024   {E-lon(deg),Lat(deg),Alt(km)}
Center cylindric: 204.5278, 6006.35451, 2151.0229 {E-lon(deg),Dxy(km),Dz(km)}
Center pole/equ : ITRF93                          {East-longitude positive}
Center radii    : 6378.137, 6378.137, 6356.752 km {Equator_a, b, pole_c}       
Target primary  : Sun
Vis. interferer : MOON (R_eq= 1737.400) km        {source: DE441}
Rel. light bend : Sun                             {source: DE441}
Rel. lght bnd GM: 1.3271E+11 km^3/s^2                                          
Small-body perts: Yes                             {source: SB441-N16}
Atmos refraction: NO (AIRLESS)
RA format       : HMS
Time format     : CAL 
Calendar mode   : Mixed Julian/Gregorian
RTS-only print  : NO       
EOP file        : eop.250307.p250603                                           
EOP coverage    : DATA-BASED 1962-JAN-20 TO 2025-MAR-07. PREDICTS-> 2025-JUN-02
Units conversion: 1 au= 149597870.700 km, c= 299792.458 km/s, 1 day= 86400.0 s 
Table cut-offs 1: Elevation (-90.0deg=NO ),Airmass (>38.000=NO), Daylight (YES)
Table cut-offs 2: Solar elongation (  0.0,180.0=NO ),Local Hour Angle( 0.0=NO )
Table cut-offs 3: RA/DEC angular rate (     0.0=NO )                           
*******************************************************************************
Initial IAU76/J2000 heliocentric ecliptic osculating elements (au, days, deg.):
  EPOCH=  2458458.5 ! 2018-Dec-06.00 (TDB)         Residual RMS= .12928        
   EC= .06869100257422787  QR= .9715505345748198   TP= 2458416.866413563       
   OM= 248.5061090469913   W=  141.3742304527303   IN= 1.905403987972275       
  Equivalent ICRF heliocentric cartesian coordinates (au, au/d):
   X= 2.787163119783287E-01  Y= 8.719775267121872E-01  Z= 3.748421051204766E-01
  VX=-1.676682657337402E-02 VY= 5.516972965834891E-03 VZ= 1.749720915605096E-03
Asteroid physical parameters (km, seconds, rotational period in hours):        
   GM= n.a.                RAD= n.a.               ROTPER= n.a.                
   H= 30.3                 G= .150                 B-V= n.a.                   
                           ALBEDO= n.a.            STYP= n.a.                  
*******************************************************************************
 Date__(UT)__HR:MN     R.A._________(ICRF)_________DEC
******************************************************
$$SOE
 2018-Oct-04 12:29  m  01 55 10.027834 +19 18 14.33334
 2018-Oct-04 12:30  m  01 55 10.006068 +19 18 14.63943
 2018-Oct-04 12:31  m  01 55 09.984341 +19 18 14.94486
 2018-Oct-04 12:32  m  01 55 09.962651 +19 18 15.24963
 2018-Oct-04 12:33  m  01 55 09.941001 +19 18 15.55373
 2018-Oct-04 12:34  m  01 55 09.919391 +19 18 15.85717
 2018-Oct-04 12:35  m  01 55 09.897821 +19 18 16.15995
 2018-Oct-04 12:36  m  01 55 09.876292 +19 18 16.46207
 2018-Oct-04 12:37  m  01 55 09.854804 +19 18 16.76353
 2018-Oct-04 12:38  m  01 55 09.833359 +19 18 17.06433
 2018-Oct-04 12:39  m  01 55 09.811957 +19 18 17.36447
 2018-Oct-04 12:40  m  01 55 09.790598 +19 18 17.66396
 2018-Oct-04 12:41  m  01 55 09.769283 +19 18 17.96279
 2018-Oct-04 12:42  m  01 55 09.748013 +19 18 18.26097
 2018-Oct-04 12:43  m  01 55 09.726788 +19 18 18.55850
 2018-Oct-04 12:44  m  01 55 09.705608 +19 18 18.85537
 2018-Oct-04 12:45  m  01 55 09.684476 +19 18 19.15159
 2018-Oct-04 12:46  m  01 55 09.663390 +19 18 19.44716
 2018-Oct-04 12:47  m  01 55 09.642352 +19 18 19.74208
 2018-Oct-04 12:48  m  01 55 09.621362 +19 18 20.03635
 2018-Oct-04 12:49  m  01 55 09.600421 +19 18 20.32997
 2018-Oct-04 12:50  m  01 55 09.579530 +19 18 20.62294
 2018-Oct-04 12:51  m  01 55 09.558688 +19 18 20.91527
 2018-Oct-04 12:52  m  01 55 09.537897 +19 18 21.20696
 2018-Oct-04 12:53  m  01 55 09.517158 +19 18 21.49800
 2018-Oct-04 12:54  m  01 55 09.496470 +19 18 21.78840
 2018-Oct-04 12:55  m  01 55 09.475835 +19 18 22.07816
 2018-Oct-04 12:56  m  01 55 09.455253 +19 18 22.36727
 2018-Oct-04 12:57  m  01 55 09.434724 +19 18 22.65575
 2018-Oct-04 12:58  m  01 55 09.414249 +19 18 22.94359
 2018-Oct-04 12:59  m  01 55 09.393830 +19 18 23.23080
 2018-Oct-04 13:00  m  01 55 09.373465 +19 18 23.51736
 2018-Oct-04 13:01  m  01 55 09.353157 +19 18 23.80330
 2018-Oct-04 13:02  m  01 55 09.332905 +19 18 24.08859
 2018-Oct-04 13:03  m  01 55 09.312711 +19 18 24.37326
 2018-Oct-04 13:04  m  01 55 09.292574 +19 18 24.65730
 2018-Oct-04 13:05  m  01 55 09.272495 +19 18 24.94070
 2018-Oct-04 13:06  m  01 55 09.252476 +19 18 25.22348
 2018-Oct-04 13:07  m  01 55 09.232515 +19 18 25.50563
 2018-Oct-04 13:08  m  01 55 09.212615 +19 18 25.78716
 2018-Oct-04 13:09  m  01 55 09.192776 +19 18 26.06805
 2018-Oct-04 13:10  m  01 55 09.172997 +19 18 26.34833
 2018-Oct-04 13:11  m  01 55 09.153281 +19 18 26.62798
 2018-Oct-04 13:12  m  01 55 09.133626 +19 18 26.90702
 2018-Oct-04 13:13  m  01 55 09.114035 +19 18 27.18543
 2018-Oct-04 13:14  m  01 55 09.094507 +19 18 27.46322
 2018-Oct-04 13:15  m  01 55 09.075044 +19 18 27.74040
 2018-Oct-04 13:16  m  01 55 09.055645 +19 18 28.01696
 2018-Oct-04 13:17  m  01 55 09.036311 +19 18 28.29291
 2018-Oct-04 13:18  m  01 55 09.017043 +19 18 28.56824
 2018-Oct-04 13:19  m  01 55 08.997841 +19 18 28.84296
 2018-Oct-04 13:20  m  01 55 08.978706 +19 18 29.11708
 2018-Oct-04 13:21  m  01 55 08.959639 +19 18 29.39058
 2018-Oct-04 13:22  m  01 55 08.940640 +19 18 29.66348
 2018-Oct-04 13:23  m  01 55 08.921709 +19 18 29.93577
 2018-Oct-04 13:24  m  01 55 08.902847 +19 18 30.20745
 2018-Oct-04 13:25  m  01 55 08.884056 +19 18 30.47853
 2018-Oct-04 13:26  m  01 55 08.865334 +19 18 30.74901
 2018-Oct-04 13:27  m  01 55 08.846683 +19 18 31.01890
 2018-Oct-04 13:28  m  01 55 08.828104 +19 18 31.28818
 2018-Oct-04 13:29  m  01 55 08.809597 +19 18 31.55686
 2018-Oct-04 13:30  m  01 55 08.791162 +19 18 31.82495
 2018-Oct-04 13:31  m  01 55 08.772800 +19 18 32.09245
 2018-Oct-04 13:32  m  01 55 08.754511 +19 18 32.35935
 2018-Oct-04 13:33  m  01 55 08.736297 +19 18 32.62566
 2018-Oct-04 13:34  m  01 55 08.718158 +19 18 32.89138
 2018-Oct-04 13:35  m  01 55 08.700094 +19 18 33.15652
 2018-Oct-04 13:36  m  01 55 08.682105 +19 18 33.42106
 2018-Oct-04 13:37  m  01 55 08.664193 +19 18 33.68503
 2018-Oct-04 13:38  m  01 55 08.646358 +19 18 33.94841
 2018-Oct-04 13:39  m  01 55 08.628600 +19 18 34.21120
 2018-Oct-04 13:40  m  01 55 08.610920 +19 18 34.47342
 2018-Oct-04 13:41  m  01 55 08.593318 +19 18 34.73506
 2018-Oct-04 13:42  m  01 55 08.575796 +19 18 34.99612
 2018-Oct-04 13:43  m  01 55 08.558352 +19 18 35.25661
 2018-Oct-04 13:44  m  01 55 08.540990 +19 18 35.51653
 2018-Oct-04 13:45  m  01 55 08.523707 +19 18 35.77587
 2018-Oct-04 13:46  m  01 55 08.506506 +19 18 36.03464
 2018-Oct-04 13:47  m  01 55 08.489386 +19 18 36.29285
 2018-Oct-04 13:48  m  01 55 08.472349 +19 18 36.55048
 2018-Oct-04 13:49  m  01 55 08.455394 +19 18 36.80756
 2018-Oct-04 13:50  m  01 55 08.438522 +19 18 37.06407
 2018-Oct-04 13:51  m  01 55 08.421735 +19 18 37.32002
 2018-Oct-04 13:52  m  01 55 08.405031 +19 18 37.57540
 2018-Oct-04 13:53  m  01 55 08.388412 +19 18 37.83024
 2018-Oct-04 13:54  m  01 55 08.371879 +19 18 38.08451
 2018-Oct-04 13:55  m  01 55 08.355431 +19 18 38.33823
 2018-Oct-04 13:56  m  01 55 08.339069 +19 18 38.59140
 2018-Oct-04 13:57  m  01 55 08.322795 +19 18 38.84401
 2018-Oct-04 13:58  m  01 55 08.306607 +19 18 39.09608
 2018-Oct-04 13:59  m  01 55 08.290508 +19 18 39.34760
 2018-Oct-04 14:00  m  01 55 08.274497 +19 18 39.59858
 2018-Oct-04 14:01  m  01 55 08.258574 +19 18 39.84901
 2018-Oct-04 14:02  m  01 55 08.242741 +19 18 40.09890
 2018-Oct-04 14:03  m  01 55 08.226998 +19 18 40.34825
 2018-Oct-04 14:04  m  01 55 08.211346 +19 18 40.59707
 2018-Oct-04 14:05  m  01 55 08.195784 +19 18 40.84534
 2018-Oct-04 14:06  m  01 55 08.180313 +19 18 41.09308
 2018-Oct-04 14:07  m  01 55 08.164934 +19 18 41.34030
 2018-Oct-04 14:08  m  01 55 08.149648 +19 18 41.58698
 2018-Oct-04 14:09  m  01 55 08.134454 +19 18 41.83313
 2018-Oct-04 14:10  m  01 55 08.119354 +19 18 42.07875
 2018-Oct-04 14:11  m  01 55 08.104347 +19 18 42.32385
 2018-Oct-04 14:12  m  01 55 08.089435 +19 18 42.56843
 2018-Oct-04 14:13  m  01 55 08.074617 +19 18 42.81249
 2018-Oct-04 14:14  m  01 55 08.059894 +19 18 43.05603
 2018-Oct-04 14:15  m  01 55 08.045268 +19 18 43.29905
 2018-Oct-04 14:16  m  01 55 08.030737 +19 18 43.54156
 2018-Oct-04 14:17  m  01 55 08.016303 +19 18 43.78356
 2018-Oct-04 14:18  m  01 55 08.001967 +19 18 44.02505
 2018-Oct-04 14:19  m  01 55 07.987727 +19 18 44.26602
 2018-Oct-04 14:20  m  01 55 07.973586 +19 18 44.50649
 2018-Oct-04 14:21  m  01 55 07.959544 +19 18 44.74646
 2018-Oct-04 14:22  m  01 55 07.945600 +19 18 44.98592
 2018-Oct-04 14:23  m  01 55 07.931756 +19 18 45.22489
 2018-Oct-04 14:24  m  01 55 07.918012 +19 18 45.46335
 2018-Oct-04 14:25  m  01 55 07.904368 +19 18 45.70132
 2018-Oct-04 14:26  m  01 55 07.890825 +19 18 45.93880
 2018-Oct-04 14:27  m  01 55 07.877383 +19 18 46.17578
 2018-Oct-04 14:28  m  01 55 07.864043 +19 18 46.41227
 2018-Oct-04 14:29  m  01 55 07.850806 +19 18 46.64828
 2018-Oct-04 14:30  m  01 55 07.837670 +19 18 46.88380
 2018-Oct-04 14:31  m  01 55 07.824638 +19 18 47.11884
